{"type": "FeatureCollection", "features": [{"type": "Feature", "properties": {"norad_id": 32275, "name": "COSMOS 2433 (720)", "group": "glo-ops", "lat": 22.315715391197024, "lon": 131.43506976201874, "alt_km": 19129.14484700066, "timestamp": "2025-12-14T16:47:40.944666+00:00", "meta": {"OBJECT_NAME": "COSMOS 2433 (720)", "OBJECT_ID": "2007-052A", "EPOCH": "2025-12-10T06:34:19.673184", "MEAN_MOTION": 2.13103813, "ECCENTRICITY": 0.00055546, "INCLINATION": 65.6847, "RA_OF_ASC_NODE": 322.2886, "ARG_OF_PERICENTER": 252.6006, "MEAN_ANOMALY": 107.3381, "EPHEMERIS_TYPE": 0, "CLASSIFICATION_TYPE": "U", "NORAD_CAT_ID": 32275, "ELEMENT_SET_NO": 999, "REV_AT_EPOCH": 14103, "BSTAR": 0, "MEAN_MOTION_DOT": -5e-07, "MEAN_MOTION_DDOT": 0}, "tle": {"line1": "1 32275U 07052A   25344.27383881 -.00000050  00000+0  00000+0 0  9995", "line2": "2 32275  65.6847 322.2886 0005554 252.6006 107.3381  2.13103813141032"}}, "geometry": {"type": "Point", "coordinates": [131.43506976201874, 22.315715391197024]}}, {"type": "Feature", "properties": {"norad_id": 32276, "name": "COSMOS 2432 (719)", "group": "glo-ops", "lat": 63.84632566799105, "lon": 75.3176630109351, "alt_km": 19147.317488044395, "timestamp": "2025-12-14T16:47:40.944689+00:00", "meta": {"OBJECT_NAME": "COSMOS 2432 (719)", "OBJECT_ID": "2007-052B", "EPOCH": "2025-12-13T20:50:15.808128", "MEAN_MOTION": 2.13103057, "ECCENTRICITY": 0.00112459, "INCLINATION": 65.6982, "RA_OF_ASC_NODE": 322.2918, "ARG_OF_PERICENTER": 312.0081, "MEAN_ANOMALY": 229.9013, "EPHEMERIS_TYPE": 0, "CLASSIFICATION_TYPE": "U", "NORAD_CAT_ID": 32276, "ELEMENT_SET_NO": 999, "REV_AT_EPOCH": 14113, "BSTAR": 0, "MEAN_MOTION_DOT": -6.1e-07, "MEAN_MOTION_DDOT": 0}, "tle": {"line1": "1 32276U 07052B   25347.86823852 -.00000061  00000+0  00000+0 0  9993", "line2": "2 32276  65.6982 322.2918 0011245 312.0081 229.9013  2.13103057141131"}}, "geometry": {"type": "Point", "coordinates": [75.3176630109351, 63.84632566799105]}}, {"type": "Feature", "properties": {"norad_id": 32393, "name": "COSMOS 2434 (721)", "group": "glo-ops", "lat": 40.3351781759978, "lon": -137.74082687476616, "alt_km": 19115.352524990656, "timestamp": "2025-12-14T16:47:40.944704+00:00", "meta": {"OBJECT_NAME": "COSMOS 2434 (721)", "OBJECT_ID": "2007-065A", "EPOCH": "2025-12-10T15:35:17.035872", "MEAN_MOTION": 2.13101152, "ECCENTRICITY": 0.0004304, "INCLINATION": 64.3147, "RA_OF_ASC_NODE": 198.2738, "ARG_OF_PERICENTER": 71.148, "MEAN_ANOMALY": 107.63, "EPHEMERIS_TYPE": 0, "CLASSIFICATION_TYPE": "U", "NORAD_CAT_ID": 32393, "ELEMENT_SET_NO": 999, "REV_AT_EPOCH": 13975, "BSTAR": 0, "MEAN_MOTION_DOT": 4.8e-07, "MEAN_MOTION_DDOT": 0}, "tle": {"line1": "1 32393U 07065A   25344.64950273  .00000048  00000+0  00000+0 0  9992", "line2": "2 32393  64.3147 198.2738 0004304  71.1480 107.6300  2.13101152139755"}}, "geometry": {"type": "Point", "coordinates": [-137.74082687476616, 40.3351781759978]}}, {"type": "Feature", "properties": {"norad_id": 32395, "name": "COSMOS 2436 (723)", "group": "glo-ops", "lat": 0.8171252062784158, "lon": 17.81719937829411, "alt_km": 19175.069574823214, "timestamp": "2025-12-14T16:47:40.944717+00:00", "meta": {"OBJECT_NAME": "COSMOS 2436 (723)", "OBJECT_ID": "2007-065C", "EPOCH": "2025-12-08T02:01:11.627904", "MEAN_MOTION": 2.13100022, "ECCENTRICITY": 0.00177472, "INCLINATION": 64.3236, "RA_OF_ASC_NODE": 198.4308, "ARG_OF_PERICENTER": 9.2257, "MEAN_ANOMALY": 134.6131, "EPHEMERIS_TYPE": 0, "CLASSIFICATION_TYPE": "U", "NORAD_CAT_ID": 32395, "ELEMENT_SET_NO": 999, "REV_AT_EPOCH": 13965, "BSTAR": 0, "MEAN_MOTION_DOT": 5.1e-07, "MEAN_MOTION_DDOT": 0}, "tle": {"line1": "1 32395U 07065C   25342.08416236  .00000051  00000+0  00000+0 0  9990", "line2": "2 32395  64.3236 198.4308 0017747   9.2257 134.6131  2.13100022139656"}}, "geometry": {"type": "Point", "coordinates": [17.81719937829411, 0.8171252062784158]}}, {"type": "Feature", "properties": {"norad_id": 36111, "name": "COSMOS 2456 (730)", "group": "glo-ops", "lat": -20.815953311980213, "lon": -92.47480615030878, "alt_km": 19133.5758864083, "timestamp": "2025-12-14T16:47:40.944729+00:00", "meta": {"OBJECT_NAME": "COSMOS 2456 (730)", "OBJECT_ID": "2009-070A", "EPOCH": "2025-12-09T05:47:54.858624", "MEAN_MOTION": 2.13103359, "ECCENTRICITY": 0.00028383, "INCLINATION": 64.8981, "RA_OF_ASC_NODE": 77.4578, "ARG_OF_PERICENTER": 298.5783, "MEAN_ANOMALY": 37.1692, "EPHEMERIS_TYPE": 0, "CLASSIFICATION_TYPE": "U", "NORAD_CAT_ID": 36111, "ELEMENT_SET_NO": 999, "REV_AT_EPOCH": 12437, "BSTAR": 0, "MEAN_MOTION_DOT": -1.7e-07, "MEAN_MOTION_DDOT": 0}, "tle": {"line1": "1 36111U 09070A   25343.24160716 -.00000017  00000+0  00000+0 0  9999", "line2": "2 36111  64.8981  77.4578 0002838 298.5783  37.1692  2.13103359124373"}}, "geometry": {"type": "Point", "coordinates": [-92.47480615030878, -20.815953311980213]}}, {"type": "Feature", "properties": {"norad_id": 36112, "name": "COSMOS 2457 (733)", "group": "glo-ops", "lat": -24.973945017820732, "lon": 64.52547806903671, "alt_km": 19145.47031314557, "timestamp": "2025-12-14T16:47:40.944741+00:00", "meta": {"OBJECT_NAME": "COSMOS 2457 (733)", "OBJECT_ID": "2009-070B", "EPOCH": "2025-12-13T07:58:58.732608", "MEAN_MOTION": 2.13100875, "ECCENTRICITY": 0.00047033, "INCLINATION": 64.8861, "RA_OF_ASC_NODE": 77.165, "ARG_OF_PERICENTER": 158.447, "MEAN_ANOMALY": 204.9439, "EPHEMERIS_TYPE": 0, "CLASSIFICATION_TYPE": "U", "NORAD_CAT_ID": 36112, "ELEMENT_SET_NO": 999, "REV_AT_EPOCH": 12447, "BSTAR": 0, "MEAN_MOTION_DOT": -5.1e-07, "MEAN_MOTION_DDOT": 0}, "tle": {"line1": "1 36112U 09070B   25347.33262422 -.00000051  00000+0  00000+0 0  9999", "line2": "2 36112  64.8861  77.1650 0004703 158.4470 204.9439  2.13100875124473"}}, "geometry": {"type": "Point", "coordinates": [64.52547806903671, -24.973945017820732]}}, {"type": "Feature", "properties": {"norad_id": 36402, "name": "COSMOS 2460 (732)", "group": "glo-ops", "lat": -25.506551745652086, "lon": -51.85219638722844, "alt_km": 19129.529848597198, "timestamp": "2025-12-14T16:47:40.944753+00:00", "meta": {"OBJECT_NAME": "COSMOS 2460 (732)", "OBJECT_ID": "2010-007C", "EPOCH": "2025-12-13T13:53:49.157952", "MEAN_MOTION": 2.13106108, "ECCENTRICITY": 0.00026771, "INCLINATION": 65.5289, "RA_OF_ASC_NODE": 320.7443, "ARG_OF_PERICENTER": 274.1475, "MEAN_ANOMALY": 277.7778, "EPHEMERIS_TYPE": 0, "CLASSIFICATION_TYPE": "U", "NORAD_CAT_ID": 36402, "ELEMENT_SET_NO": 999, "REV_AT_EPOCH": 12277, "BSTAR": 0, "MEAN_MOTION_DOT": -6.1e-07, "MEAN_MOTION_DDOT": 0}, "tle": {"line1": "1 36402U 10007C   25347.57904118 -.00000061  00000+0  00000+0 0  9995", "line2": "2 36402  65.5289 320.7443 0002677 274.1475 277.7778  2.13106108122773"}}, "geometry": {"type": "Point", "coordinates": [-51.85219638722844, -25.506551745652086]}}, {"type": "Feature", "properties": {"norad_id": 37867, "name": "COSMOS 2476 (744)", "group": "glo-ops", "lat": 57.7967781808993, "lon": -148.13242633708623, "alt_km": 19156.105669192697, "timestamp": "2025-12-14T16:47:40.944765+00:00", "meta": {"OBJECT_NAME": "COSMOS 2476 (744)", "OBJECT_ID": "2011-064A", "EPOCH": "2025-12-10T19:30:14.482368", "MEAN_MOTION": 2.13101258, "ECCENTRICITY": 0.00238922, "INCLINATION": 65.1614, "RA_OF_ASC_NODE": 79.2364, "ARG_OF_PERICENTER": 233.6597, "MEAN_ANOMALY": 135.7131, "EPHEMERIS_TYPE": 0, "CLASSIFICATION_TYPE": "U", "NORAD_CAT_ID": 37867, "ELEMENT_SET_NO": 999, "REV_AT_EPOCH": 10975, "BSTAR": 0, "MEAN_MOTION_DOT": -2.4e-07, "MEAN_MOTION_DDOT": 0}, "tle": {"line1": "1 37867U 11064A   25344.81266762 -.00000024  00000+0  00000+0 0  9994", "line2": "2 37867  65.1614  79.2364 0023892 233.6597 135.7131  2.13101258109752"}}, "geometry": {"type": "Point", "coordinates": [-148.13242633708623, 57.7967781808993]}}, {"type": "Feature", "properties": {"norad_id": 37868, "name": "COSMOS 2477 (745)", "group": "glo-ops", "lat": -56.949758357062926, "lon": 33.91222605897145, "alt_km": 19107.430437891093, "timestamp": "2025-12-14T16:47:40.944776+00:00", "meta": {"OBJECT_NAME": "COSMOS 2477 (745)", "OBJECT_ID": "2011-064B", "EPOCH": "2025-12-12T21:57:38.702592", "MEAN_MOTION": 2.13102761, "ECCENTRICITY": 0.00211332, "INCLINATION": 65.1692, "RA_OF_ASC_NODE": 79.2429, "ARG_OF_PERICENTER": 234.633, "MEAN_ANOMALY": 128.5252, "EPHEMERIS_TYPE": 0, "CLASSIFICATION_TYPE": "U", "NORAD_CAT_ID": 37868, "ELEMENT_SET_NO": 999, "REV_AT_EPOCH": 10979, "BSTAR": 0, "MEAN_MOTION_DOT": -4.4e-07, "MEAN_MOTION_DDOT": 0}, "tle": {"line1": "1 37868U 11064B   25346.91503128 -.00000044  00000+0  00000+0 0  9990", "line2": "2 37868  65.1692  79.2429 0021133 234.6330 128.5252  2.13102761109791"}}, "geometry": {"type": "Point", "coordinates": [33.91222605897145, -56.949758357062926]}}, {"type": "Feature", "properties": {"norad_id": 37869, "name": "COSMOS 2475 (743)", "group": "glo-ops", "lat": -57.51641512495072, "lon": -54.25186768984447, "alt_km": 19069.28188761709, "timestamp": "2025-12-14T16:47:40.944788+00:00", "meta": {"OBJECT_NAME": "COSMOS 2475 (743)", "OBJECT_ID": "2011-064C", "EPOCH": "2025-12-13T13:22:27.614784", "MEAN_MOTION": 2.1310138, "ECCENTRICITY": 0.00262467, "INCLINATION": 65.1766, "RA_OF_ASC_NODE": 79.2411, "ARG_OF_PERICENTER": 248.6291, "MEAN_ANOMALY": 203.1701, "EPHEMERIS_TYPE": 0, "CLASSIFICATION_TYPE": "U", "NORAD_CAT_ID": 37869, "ELEMENT_SET_NO": 999, "REV_AT_EPOCH": 10981, "BSTAR": 0, "MEAN_MOTION_DOT": -5e-07, "MEAN_MOTION_DDOT": 0}, "tle": {"line1": "1 37869U 11064C   25347.55726406 -.00000050  00000+0  00000+0 0  9995", "line2": "2 37869  65.1766  79.2411 0026246 248.6291 203.1701  2.13101380109814"}}, "geometry": {"type": "Point", "coordinates": [-54.25186768984447, -57.51641512495072]}}]}